IRIDIUM 155             
1 43573U 18061E   19076.55858879  .00000031  00000-0  39520-5 0  9994
2 43573  86.3921  83.6067 0002471  72.0687 288.0779 14.34216195 33730
IRIDIUM 154             
1 43574U 18061F   19076.53956215  .00000064  00000-0  15775-4 0  9997
2 43574  86.3924  83.6230 0002414  98.0889 262.0581 14.34216692 33774
IRIDIUM 163             
1 43575U 18061G   19076.52053944  .00000064  00000-0  15824-4 0  9999
2 43575  86.3922  83.6264 0001514 103.4404 256.6961 14.34218249 33742
IRIDIUM 156             
1 43576U 18061H   19076.56493799  .00000062  00000-0  15031-4 0  9998
2 43576  86.3923  83.6122 0001849  82.0423 278.0983 14.34216077 33739
IRIDIUM 164             
1 43577U 18061J   19076.54592846  .00000068  00000-0  17066-4 0  9996
2 43577  86.3923  83.6202 0002176  96.8282 263.3162 14.34217049 33780
IRIDIUM 159             
1 43578U 18061K   19076.51418867  .00000065  00000-0  16042-4 0  9994
2 43578  86.3922  83.6258 0002290  94.5374 265.6083 14.34216822 33746
IRIDIUM 180             
1 43922U 19002A   19076.37415288  .00000052  00000-0  11328-4 0  9999
2 43922  86.4012  20.4956 0002456 120.7134 239.4304 14.34218935  9378
IRIDIUM 176             
1 43923U 19002B   19076.38942131  .00000116  00000-0  14532-4 0  9994
2 43923  86.6144  20.5043 0002125  83.2933 276.8526 14.72247979  9539
IRIDIUM 168             
1 43924U 19002C   19076.43759038  .00000043  00000-0  82494-5 0  9995
2 43924  86.4014  20.4715 0002315  95.4135 264.7325 14.34217121  9323
IRIDIUM 173             
1 43925U 19002D   19076.42490543  .00000056  00000-0  12957-4 0  9998
2 43925  86.4010  20.4730 0002197  91.7800 268.3648 14.34217371  9317
IRIDIUM 169             
1 43926U 19002E   19076.42964982  .00000054  00000-0  11461-4 0  9999
2 43926  87.4077  25.0529 0004872  69.4496 290.7225 14.38613426  9410
IRIDIUM 172             
1 43927U 19002F   19076.41854832  .00000063  00000-0  15358-4 0  9990
2 43927  86.4011  20.4753 0002203  96.7672 263.3775 14.34219044  9310
IRIDIUM 175             
1 43928U 19002G   19076.45122618  .00000118  00000-0  14763-4 0  9995
2 43928  86.6129  20.4606 0003521  77.7987 282.3624 14.72258101  9539
IRIDIUM 171             
1 43929U 19002H   19076.32976605  .00000055  00000-0  12468-4 0  9995
2 43929  86.4020  20.5243 0002296  93.2764 266.8694 14.34218119  9290
IRIDIUM 170             
1 43930U 19002J   19076.39559506  .00000136  00000-0  17691-4 0  9994
2 43930  86.6145  20.5096 0002514  75.0585 285.0910 14.72248066  9548
IRIDIUM 167             
1 43931U 19002K   19076.39318906  .00000046  00000-0  93176-5 0  9995
2 43931  86.4012  20.4854 0002496 116.0283 244.1170 14.34217344  9302
